STARLINK-30809          
1 58183U 23167J   26166.13295033  .00001157  00000+0  51554-4 0  9998
2 58183  43.0009 313.4471 0001505 264.5648  95.5032 15.27583669145884
STARLINK-30801          
1 58184U 23167K   26166.13680580  .00000492  00000+0  27400-4 0  9998
2 58184  43.0069 313.4763 0001864 268.0553  92.0085 15.27579081145880
STARLINK-30793          
1 58185U 23167L   26166.10596288  .00000144  00000+0  14760-4 0  9996
2 58185  43.0054 313.2403 0001067 268.5378  91.5352 15.27581564145889
STARLINK-30755          
1 58186U 23167M   26165.69438096 -.00000584  00000+0 -11708-4 0  9991
2 58186  43.0014 315.3183 0002080 273.6320  86.4294 15.27569553145820
STARLINK-30760          
1 58187U 23167N   26166.10982600  .00000911  00000+0  42635-4 0  9999
2 58187  43.0064 313.2698 0001147 276.1513  83.9208 15.27570580145884
STARLINK-30826          
1 58188U 23167P   26166.10468274  .00001071  00000+0  48448-4 0  9992
2 58188  43.0001 313.2328 0001025 273.3958  86.6776 15.27573303145889
STARLINK-30796          
1 58189U 23167Q   26165.69047299  .00006187  00000+0  23374-3 0  9999
2 58189  43.0002 315.2841 0000897 172.3194 187.7671 15.27639522145826
STARLINK-30820          
1 58190U 23167R   26165.68665739  .00001062  00000+0  48121-4 0  9990
2 58190  43.0059 315.2581 0002850 282.3308  77.7224 15.27585387145822
STARLINK-30785          
1 58191U 23167S   26166.11625020  .00000752  00000+0  36871-4 0  9993
2 58191  43.0043 313.3198 0000832 280.1416  79.9342 15.27570109145880
STARLINK-30807          
1 58192U 23167T   26166.50002315 -.00013563  00000+0 -48412-3 0  9992
2 58192  43.0017 311.0516 0001352 265.1535  90.3106 15.27587014  5696
STARLINK-30822          
1 58193U 23167U   26166.12652019  .00001128  00000+0  50474-4 0  9997
2 58193  43.0047 313.3959 0000389 313.9678  46.1141 15.27590430145885
STARLINK-30830          
1 58194U 23167V   26165.68794470  .00000178  00000+0  15995-4 0  9999
2 58194  43.0028 315.2440 0000941 240.4493 119.6265 15.27578096145825
STARLINK-30827          
1 58195U 23167W   26165.68409783 -.00000521  00000+0 -94305-5 0  9997
2 58195  43.0023 315.2412 0001205 260.8227  99.2488 15.27572619145820
STARLINK-30798          
1 58196U 23167X   26166.12011311  .00000258  00000+0  18912-4 0  9998
2 58196  43.0099 313.3513 0000921 279.4883  80.5865 15.27575369145886
STARLINK-30762          
1 58197U 23167Y   26166.13038541  .00000367  00000+0  22882-4 0  9996
2 58197  43.0107 313.4205 0001592 261.2443  98.8228 15.27576652145883
STARLINK-30800          
1 58206U 23170A   26166.23685681 -.00002393  00000+0 -77447-4 0  9995
2 58206  43.0011   3.7059 0001405 265.1279  94.9412 15.27580984145219
STARLINK-30845          
1 58207U 23170B   26165.89055462  .00021944  00000+0  14554-2 0  9994
2 58207  42.9988  25.8398 0002795 257.2282 102.8249 15.06875715144921
STARLINK-30841          
1 58208U 23170C   26165.83425908 -.00001239  00000+0 -35506-4 0  9994
2 58208  43.0049   5.8339 0001860 263.8573  96.2067 15.27572474145152
STARLINK-30839          
1 58209U 23170D   26165.85724251  .00000400  00000+0  24075-4 0  9996
2 58209  43.0047   5.1655 0000969 264.3082  95.7659 15.27574029145165
STARLINK-30846          
1 58210U 23170E   26165.85224294  .00000040  00000+0  10973-4 0  9992
2 58210  43.0019   5.9797 0001363 278.5166  81.5531 15.27577139145156
STARLINK-30838          
1 58211U 23170F   26165.27904516 -.00000577  00000+0 -11435-4 0  9992
2 58211  43.0090   8.5642 0001303 254.1575 105.9133 15.27570884145072
STARLINK-30837          
1 58212U 23170G   26165.84839259 -.00000698  00000+0 -15847-4 0  9992
2 58212  42.9990   5.9294 0001609 277.5591  82.5078 15.27569256145158
STARLINK-30813          
1 58213U 23170H   26166.39446603 -.00000130  00000+0  48072-5 0  9998
2 58213  43.0036   2.3131 0001497 258.7752 101.2932 15.27575306145249
STARLINK-30805          
1 58214U 23170J   26165.85981228 -.00000751  00000+0 -17757-4 0  9991
2 58214  43.0073   5.1836 0001391 262.8538  97.2156 15.27575514145169
STARLINK-30851          
1 58215U 23170K   26165.86365012  .00000665  00000+0  33684-4 0  9999
2 58215  43.0014   5.2065 0002148 284.5392  75.5221 15.27582007145167
STARLINK-30818          
1 58217U 23170M   26165.28164280 -.00003850  00000+0 -13060-3 0  9997
2 58217  43.0110   8.5829 0001283 262.3071  97.7635 15.27546370145075
STARLINK-30794          
1 58218U 23170N   26165.86109660  .00003988  00000+0  15433-3 0  9999
2 58218  43.0088   5.1741 0000613 312.4305  47.6494 15.27584610145165
STARLINK-30835          
1 58219U 23170P   26165.29318879  .00020026  00000+0  73508-3 0  9990
2 58219  42.9994   8.6661 0001187  91.9169 268.1819 15.27588192145073
STARLINK-30792          
1 58220U 23170Q   26166.31897786  .00015862  00000+0  10272-2 0  9995
2 58220  43.0029  22.1755 0007748 237.3339 122.6759 15.07904679145005
STARLINK-30836          
1 58221U 23170R   26165.82269276  .00000793  00000+0  38322-4 0  9993
2 58221  43.0052   5.7595 0001024 257.6228 102.4509 15.27577615145157
