OBJECT_NAME,OBJECT_ID,EPOCH,MEAN_MOTION,ECCENTRICITY,INCLINATION,RA_OF_ASC_NODE,ARG_OF_PERICENTER,MEAN_ANOMALY,EPHEMERIS_TYPE,CLASSIFICATION_TYPE,NORAD_CAT_ID,ELEMENT_SET_NO,REV_AT_EPOCH,BSTAR,MEAN_MOTION_DOT,MEAN_MOTION_DDOT
STARLINK-30809,2023-167J,2026-06-15T03:11:26.908512,15.27583669,.00015051,43.0009,313.4471,264.5648,95.5032,0,U,58183,999,14588,.51553866E-4,.1157E-4,0
STARLINK-30801,2023-167K,2026-06-15T03:17:00.021120,15.27579081,.0001864,43.0069,313.4763,268.0553,92.0085,0,U,58184,999,14588,.274E-4,.492E-5,0
STARLINK-30793,2023-167L,2026-06-15T02:32:35.192832,15.27581564,.00010676,43.0054,313.2403,268.5378,91.5352,0,U,58185,999,14588,.14759909E-4,.144E-5,0
STARLINK-30755,2023-167M,2026-06-14T16:39:54.514944,15.27569553,.00020803,43.0014,315.3183,273.6320,86.4294,0,U,58186,999,14582,-.11707569E-4,-.584E-5,0
STARLINK-30760,2023-167N,2026-06-15T02:38:08.966400,15.27570580,.00011472,43.0064,313.2698,276.1513,83.9208,0,U,58187,999,14588,.42635044E-4,.911E-5,0
STARLINK-30826,2023-167P,2026-06-15T02:30:44.588736,15.27573303,.00010254,43.0001,313.2328,273.3958,86.6776,0,U,58188,999,14588,.48447649E-4,.1071E-4,0
STARLINK-30796,2023-167Q,2026-06-14T16:34:16.866336,15.27639522,.00008973,43.0002,315.2841,172.3194,187.7671,0,U,58189,999,14582,.23373723E-3,.6187E-4,0
STARLINK-30820,2023-167R,2026-06-14T16:28:47.198496,15.27585387,.00028505,43.0059,315.2581,282.3308,77.7224,0,U,58190,999,14582,.48121015E-4,.1062E-4,0
STARLINK-30785,2023-167S,2026-06-15T02:47:24.017280,15.27570109,.00008328,43.0043,313.3198,280.1416,79.9342,0,U,58191,999,14588,.36871011E-4,.752E-5,0
STARLINK-30807,2023-167T,2026-06-15T12:00:02.000160,15.27587014,.0001352,43.0017,311.0516,265.1535,90.3106,0,U,58192,999,569,-.48412E-3,-.13563E-3,0
STARLINK-30822,2023-167U,2026-06-15T03:02:11.344416,15.27590430,.0000389,43.0047,313.3959,313.9678,46.1141,0,U,58193,999,14588,.50473798E-4,.1128E-4,0
STARLINK-30830,2023-167V,2026-06-14T16:30:38.422080,15.27578096,.00009417,43.0028,315.2440,240.4493,119.6265,0,U,58194,999,14582,.15995217E-4,.178E-5,0
STARLINK-30827,2023-167W,2026-06-14T16:25:06.052512,15.27572619,.00012054,43.0023,315.2412,260.8227,99.2488,0,U,58195,999,14582,-.9430509E-5,-.521E-5,0
STARLINK-30798,2023-167X,2026-06-15T02:52:57.772704,15.27575369,.00009212,43.0099,313.3513,279.4883,80.5865,0,U,58196,999,14588,.18911695E-4,.258E-5,0
STARLINK-30762,2023-167Y,2026-06-15T03:07:45.299424,15.27576652,.00015922,43.0107,313.4205,261.2443,98.8228,0,U,58197,999,14588,.22881501E-4,.367E-5,0
STARLINK-30800,2023-170A,2026-06-15T05:41:04.428384,15.27580984,.0001405,43.0011,3.7059,265.1279,94.9412,0,U,58206,999,14521,-.77447E-4,-.2393E-4,0
STARLINK-30845,2023-170B,2026-06-14T21:22:23.919168,15.06875715,.00027954,42.9988,25.8398,257.2282,102.8249,0,U,58207,999,14492,.14553622E-2,.21944E-3,0
STARLINK-30841,2023-170C,2026-06-14T20:01:19.984512,15.27572474,.00018607,43.0049,5.8339,263.8573,96.2067,0,U,58208,999,14515,-.35506238E-4,-.1239E-4,0
STARLINK-30839,2023-170D,2026-06-14T20:34:25.752864,15.27574029,.00009697,43.0047,5.1655,264.3082,95.7659,0,U,58209,999,14516,.24075205E-4,.4E-5,0
STARLINK-30846,2023-170E,2026-06-14T20:27:13.790016,15.27577139,.00013634,43.0019,5.9797,278.5166,81.5531,0,U,58210,999,14515,.1097329E-4,.4E-6,0
STARLINK-30838,2023-170F,2026-06-14T06:41:49.501824,15.27570884,.00013036,43.0090,8.5642,254.1575,105.9133,0,U,58211,999,14507,-.114352E-4,-.577E-5,0
STARLINK-30837,2023-170G,2026-06-14T20:21:41.119776,15.27569256,.00016092,42.9990,5.9294,277.5591,82.5078,0,U,58212,999,14515,-.15847435E-4,-.698E-5,0
STARLINK-30813,2023-170H,2026-06-15T09:28:01.864992,15.27575306,.0001497,43.0036,2.3131,258.7752,101.2932,0,U,58213,999,14524,.48072E-5,-.13E-5,0
STARLINK-30805,2023-170J,2026-06-14T20:38:07.780992,15.27575514,.00013919,43.0073,5.1836,262.8538,97.2156,0,U,58214,999,14516,-.17756678E-4,-.751E-5,0
STARLINK-30851,2023-170K,2026-06-14T20:43:39.370368,15.27582007,.00021488,43.0014,5.2065,284.5392,75.5221,0,U,58215,999,14516,.33683519E-4,.665E-5,0
STARLINK-30818,2023-170M,2026-06-14T06:45:33.937920,15.27546370,.00012832,43.0110,8.5829,262.3071,97.7635,0,U,58217,999,14507,-.1306016E-3,-.385E-4,0
STARLINK-30794,2023-170N,2026-06-14T20:39:58.746240,15.27584610,.00006135,43.0088,5.1741,312.4305,47.6494,0,U,58218,999,14516,.15432716E-3,.3988E-4,0
STARLINK-30835,2023-170P,2026-06-14T07:02:11.511456,15.27588192,.00011875,42.9994,8.6661,91.9169,268.1819,0,U,58219,999,14507,.73508278E-3,.20026E-3,0
STARLINK-30792,2023-170Q,2026-06-15T07:39:19.687104,15.07904679,.0007748,43.0029,22.1755,237.3339,122.6759,0,U,58220,999,14500,.10272E-2,.15862E-3,0
STARLINK-30836,2023-170R,2026-06-14T19:44:40.654464,15.27577615,.00010242,43.0052,5.7595,257.6228,102.4509,0,U,58221,999,14515,.38321815E-4,.793E-5,0
